0 CZ-2D DEB
1 35271U 05024K   13281.86412852  .00001868  00000-0  12363-3 0  5492
2 35271 097.7182 298.8270 0014194 170.8198 189.3294 15.08530541400230
0 CZ-2D DEB
1 35271U 05024K   13283.25708571  .00001869  00000-0  12368-3 0  5501
2 35271 097.7174 300.2243 0014561 164.6980 195.4712 15.08536022400443
0 CZ-2D DEB
1 35271U 05024K   13287.23692878  .00002000  00000-0  13200-3 0  5521
2 35271 097.7145 304.2111 0013689 150.9385 209.2868 15.08555009401045
0 CZ-2D DEB
1 35271U 05024K   13287.83389650  .00002148  00000-0  14134-3 0  5539
2 35271 097.7186 304.8227 0016129 150.6318 209.6602 15.08560979401131
0 CZ-2D DEB
1 35271U 05024K   13289.29313971  .00002327  00000-0  15269-3 0  5544
2 35271 097.7155 306.2843 0016524 151.9984 208.2789 15.08571041401356
0 CZ-2D DEB
1 35271U 05024K   13290.81870213  .00002438  00000-0  15974-3 0  5558
2 35271 097.7139 307.8164 0016914 144.7368 215.4982 15.08580249401580
0 CZ-2D DEB
1 35271U 05024K   13292.27793966  .00002561  00000-0  16755-3 0  5565
2 35271 097.7122 309.2799 0016618 138.2605 221.9897 15.08589449401808
0 CZ-2D DEB
1 35271U 05024K   13294.86475001  .00002686  00000-0  17541-3 0  5572
2 35271 097.7123 311.8766 0016423 127.3601 232.9198 15.08605173402193
